KUIPER-00126            
1 65955U 25228J   25301.54076977  .00031996  00000+0  95793-3 0  9998
2 65955  51.8797 238.3604 0005953 206.7672 153.3007 15.34230981  3476
KUIPER-00127            
1 65956U 25228K   25301.53479762  .00031865  00000+0  93674-3 0  9998
2 65956  51.8796 238.3231 0006125 185.1487 174.9437 15.34807931  3479
KUIPER-00128            
1 65957U 25228L   25301.53689027  .00018109  00000+0  54199-3 0  9991
2 65957  51.8799 238.3391 0005757 187.3249 172.7654 15.34583912  3477
KUIPER-00129            
1 65958U 25228M   25301.53649731  .00034483  00000+0  10189-2 0  9993
2 65958  51.8799 238.3362 0005942 182.8305 177.2648 15.34607607  3476
KUIPER-00130            
1 65959U 25228N   25301.53882388  .00041184  00000+0  12210-2 0  9994
2 65959  51.8790 238.3458 0005313 196.8139 163.2672 15.34422760  3473
KUIPER-00134            
1 65960U 25228P   25301.53977993  .00031581  00000+0  94345-3 0  9993
2 65960  51.8791 238.3513 0005132 202.5014 157.5747 15.34309629  3471
KUIPER-00135            
1 65961U 25228Q   25301.53938226  .00030860  00000+0  92240-3 0  9991
2 65961  51.8807 238.3564 0005023 188.1304 171.9601 15.34305551  3475
KUIPER-00136            
1 65962U 25228R   25301.53546291  .00022476  00000+0  66650-3 0  9999
2 65962  51.8796 238.3291 0005828 186.2505 173.8409 15.34730231  3479
KUIPER-00137            
1 65963U 25228S   25301.47379109  .00028052  00000+0  83750-3 0  9991
2 65963  51.8800 238.6659 0005244 197.3964 162.6843 15.34391479  3465
KUIPER-00138            
1 65964U 25228T   25301.54054941  .00017809  00000+0  54002-3 0  9990
2 65964  51.8794 238.3578 0005793 209.2286 150.8376 15.34180810  3470
KUIPER-00140            
1 65965U 25228U   25301.47613132  .00031678  00000+0  95085-3 0  9992
2 65965  51.8803 238.6791 0005468 211.5628 148.5031 15.34156557  3469
KUIPER-00141            
1 65966U 25228V   25301.53724105  .00038435  00000+0  11356-2 0  9999
2 65966  51.8791 238.3357 0005822 189.3700 170.7178 15.34558953  3474
