CCSDS_OMM_VERS = 2.0
CREATION_DATE  = 
ORIGINATOR     = 

OBJECT_NAME    = KUIPER-00126
OBJECT_ID      = 2025-228J
CENTER_NAME    = EARTH
REF_FRAME      = TEME
TIME_SYSTEM    = UTC
MEAN_ELEMENT_THEORY = SGP/SGP4

EPOCH          = 2025-10-28T12:58:42.508128
MEAN_MOTION    = 15.34230981
ECCENTRICITY   = .00059533
INCLINATION    = 51.8797
RA_OF_ASC_NODE = 238.3604
ARG_OF_PERICENTER = 206.7672
MEAN_ANOMALY   = 153.3007

EPHEMERIS_TYPE = 0
CLASSIFICATION_TYPE = U
NORAD_CAT_ID   = 65955
ELEMENT_SET_NO = 999
REV_AT_EPOCH   = 347
BSTAR          = .95792894E-3
MEAN_MOTION_DOT = .31996E-3
MEAN_MOTION_DDOT = 0

CCSDS_OMM_VERS = 2.0
CREATION_DATE  = 
ORIGINATOR     = 

OBJECT_NAME    = KUIPER-00127
OBJECT_ID      = 2025-228K
CENTER_NAME    = EARTH
REF_FRAME      = TEME
TIME_SYSTEM    = UTC
MEAN_ELEMENT_THEORY = SGP/SGP4

EPOCH          = 2025-10-28T12:50:06.514368
MEAN_MOTION    = 15.34807931
ECCENTRICITY   = .00061255
INCLINATION    = 51.8796
RA_OF_ASC_NODE = 238.3231
ARG_OF_PERICENTER = 185.1487
MEAN_ANOMALY   = 174.9437

EPHEMERIS_TYPE = 0
CLASSIFICATION_TYPE = U
NORAD_CAT_ID   = 65956
ELEMENT_SET_NO = 999
REV_AT_EPOCH   = 347
BSTAR          = .93674486E-3
MEAN_MOTION_DOT = .31865E-3
MEAN_MOTION_DDOT = 0

CCSDS_OMM_VERS = 2.0
CREATION_DATE  = 
ORIGINATOR     = 

OBJECT_NAME    = KUIPER-00128
OBJECT_ID      = 2025-228L
CENTER_NAME    = EARTH
REF_FRAME      = TEME
TIME_SYSTEM    = UTC
MEAN_ELEMENT_THEORY = SGP/SGP4

EPOCH          = 2025-10-28T12:53:07.319328
MEAN_MOTION    = 15.34583912
ECCENTRICITY   = .00057576
INCLINATION    = 51.8799
RA_OF_ASC_NODE = 238.3391
ARG_OF_PERICENTER = 187.3249
MEAN_ANOMALY   = 172.7654

EPHEMERIS_TYPE = 0
CLASSIFICATION_TYPE = U
NORAD_CAT_ID   = 65957
ELEMENT_SET_NO = 999
REV_AT_EPOCH   = 347
BSTAR          = .54199254E-3
MEAN_MOTION_DOT = .18109E-3
MEAN_MOTION_DDOT = 0

CCSDS_OMM_VERS = 2.0
CREATION_DATE  = 
ORIGINATOR     = 

OBJECT_NAME    = KUIPER-00129
OBJECT_ID      = 2025-228M
CENTER_NAME    = EARTH
REF_FRAME      = TEME
TIME_SYSTEM    = UTC
MEAN_ELEMENT_THEORY = SGP/SGP4

EPOCH          = 2025-10-28T12:52:33.367584
MEAN_MOTION    = 15.34607607
ECCENTRICITY   = .00059423
INCLINATION    = 51.8799
RA_OF_ASC_NODE = 238.3362
ARG_OF_PERICENTER = 182.8305
MEAN_ANOMALY   = 177.2648

EPHEMERIS_TYPE = 0
CLASSIFICATION_TYPE = U
NORAD_CAT_ID   = 65958
ELEMENT_SET_NO = 999
REV_AT_EPOCH   = 347
BSTAR          = .10189491E-2
MEAN_MOTION_DOT = .34483E-3
MEAN_MOTION_DDOT = 0

CCSDS_OMM_VERS = 2.0
CREATION_DATE  = 
ORIGINATOR     = 

OBJECT_NAME    = KUIPER-00130
OBJECT_ID      = 2025-228N
CENTER_NAME    = EARTH
REF_FRAME      = TEME
TIME_SYSTEM    = UTC
MEAN_ELEMENT_THEORY = SGP/SGP4

EPOCH          = 2025-10-28T12:55:54.383232
MEAN_MOTION    = 15.34422760
ECCENTRICITY   = .00053131
INCLINATION    = 51.8790
RA_OF_ASC_NODE = 238.3458
ARG_OF_PERICENTER = 196.8139
MEAN_ANOMALY   = 163.2672

EPHEMERIS_TYPE = 0
CLASSIFICATION_TYPE = U
NORAD_CAT_ID   = 65959
ELEMENT_SET_NO = 999
REV_AT_EPOCH   = 347
BSTAR          = .12209666E-2
MEAN_MOTION_DOT = .41184E-3
MEAN_MOTION_DDOT = 0

CCSDS_OMM_VERS = 2.0
CREATION_DATE  = 
ORIGINATOR     = 

OBJECT_NAME    = KUIPER-00134
OBJECT_ID      = 2025-228P
CENTER_NAME    = EARTH
REF_FRAME      = TEME
TIME_SYSTEM    = UTC
MEAN_ELEMENT_THEORY = SGP/SGP4

EPOCH          = 2025-10-28T12:57:16.985952
MEAN_MOTION    = 15.34309629
ECCENTRICITY   = .00051324
INCLINATION    = 51.8791
RA_OF_ASC_NODE = 238.3513
ARG_OF_PERICENTER = 202.5014
MEAN_ANOMALY   = 157.5747

EPHEMERIS_TYPE = 0
CLASSIFICATION_TYPE = U
NORAD_CAT_ID   = 65960
ELEMENT_SET_NO = 999
REV_AT_EPOCH   = 347
BSTAR          = .94345446E-3
MEAN_MOTION_DOT = .31581E-3
MEAN_MOTION_DDOT = 0

CCSDS_OMM_VERS = 2.0
CREATION_DATE  = 
ORIGINATOR     = 

OBJECT_NAME    = KUIPER-00135
OBJECT_ID      = 2025-228Q
CENTER_NAME    = EARTH
REF_FRAME      = TEME
TIME_SYSTEM    = UTC
MEAN_ELEMENT_THEORY = SGP/SGP4

EPOCH          = 2025-10-28T12:56:42.627264
MEAN_MOTION    = 15.34305551
ECCENTRICITY   = .00050237
INCLINATION    = 51.8807
RA_OF_ASC_NODE = 238.3564
ARG_OF_PERICENTER = 188.1304
MEAN_ANOMALY   = 171.9601

EPHEMERIS_TYPE = 0
CLASSIFICATION_TYPE = U
NORAD_CAT_ID   = 65961
ELEMENT_SET_NO = 999
REV_AT_EPOCH   = 347
BSTAR          = .92240268E-3
MEAN_MOTION_DOT = .3086E-3
MEAN_MOTION_DDOT = 0

CCSDS_OMM_VERS = 2.0
CREATION_DATE  = 
ORIGINATOR     = 

OBJECT_NAME    = KUIPER-00136
OBJECT_ID      = 2025-228R
CENTER_NAME    = EARTH
REF_FRAME      = TEME
TIME_SYSTEM    = UTC
MEAN_ELEMENT_THEORY = SGP/SGP4

EPOCH          = 2025-10-28T12:51:03.995424
MEAN_MOTION    = 15.34730231
ECCENTRICITY   = .00058285
INCLINATION    = 51.8796
RA_OF_ASC_NODE = 238.3291
ARG_OF_PERICENTER = 186.2505
MEAN_ANOMALY   = 173.8409

EPHEMERIS_TYPE = 0
CLASSIFICATION_TYPE = U
NORAD_CAT_ID   = 65962
ELEMENT_SET_NO = 999
REV_AT_EPOCH   = 347
BSTAR          = .66649783E-3
MEAN_MOTION_DOT = .22476E-3
MEAN_MOTION_DDOT = 0

CCSDS_OMM_VERS = 2.0
CREATION_DATE  = 
ORIGINATOR     = 

OBJECT_NAME    = KUIPER-00137
OBJECT_ID      = 2025-228S
CENTER_NAME    = EARTH
REF_FRAME      = TEME
TIME_SYSTEM    = UTC
MEAN_ELEMENT_THEORY = SGP/SGP4

EPOCH          = 2025-10-28T11:22:15.550176
MEAN_MOTION    = 15.34391479
ECCENTRICITY   = .0005244
INCLINATION    = 51.8800
RA_OF_ASC_NODE = 238.6659
ARG_OF_PERICENTER = 197.3964
MEAN_ANOMALY   = 162.6843

EPHEMERIS_TYPE = 0
CLASSIFICATION_TYPE = U
NORAD_CAT_ID   = 65963
ELEMENT_SET_NO = 999
REV_AT_EPOCH   = 346
BSTAR          = .83750195E-3
MEAN_MOTION_DOT = .28052E-3
MEAN_MOTION_DDOT = 0

CCSDS_OMM_VERS = 2.0
CREATION_DATE  = 
ORIGINATOR     = 

OBJECT_NAME    = KUIPER-00138
OBJECT_ID      = 2025-228T
CENTER_NAME    = EARTH
REF_FRAME      = TEME
TIME_SYSTEM    = UTC
MEAN_ELEMENT_THEORY = SGP/SGP4

EPOCH          = 2025-10-28T12:58:23.469024
MEAN_MOTION    = 15.34180810
ECCENTRICITY   = .00057931
INCLINATION    = 51.8794
RA_OF_ASC_NODE = 238.3578
ARG_OF_PERICENTER = 209.2286
MEAN_ANOMALY   = 150.8376

EPHEMERIS_TYPE = 0
CLASSIFICATION_TYPE = U
NORAD_CAT_ID   = 65964
ELEMENT_SET_NO = 999
REV_AT_EPOCH   = 347
BSTAR          = .54002491E-3
MEAN_MOTION_DOT = .17809E-3
MEAN_MOTION_DDOT = 0

CCSDS_OMM_VERS = 2.0
CREATION_DATE  = 
ORIGINATOR     = 

OBJECT_NAME    = KUIPER-00140
OBJECT_ID      = 2025-228U
CENTER_NAME    = EARTH
REF_FRAME      = TEME
TIME_SYSTEM    = UTC
MEAN_ELEMENT_THEORY = SGP/SGP4

EPOCH          = 2025-10-28T11:25:37.746048
MEAN_MOTION    = 15.34156557
ECCENTRICITY   = .00054687
INCLINATION    = 51.8803
RA_OF_ASC_NODE = 238.6791
ARG_OF_PERICENTER = 211.5628
MEAN_ANOMALY   = 148.5031

EPHEMERIS_TYPE = 0
CLASSIFICATION_TYPE = U
NORAD_CAT_ID   = 65965
ELEMENT_SET_NO = 999
REV_AT_EPOCH   = 346
BSTAR          = .95085074E-3
MEAN_MOTION_DOT = .31678E-3
MEAN_MOTION_DDOT = 0

CCSDS_OMM_VERS = 2.0
CREATION_DATE  = 
ORIGINATOR     = 

OBJECT_NAME    = KUIPER-00141
OBJECT_ID      = 2025-228V
CENTER_NAME    = EARTH
REF_FRAME      = TEME
TIME_SYSTEM    = UTC
MEAN_ELEMENT_THEORY = SGP/SGP4

EPOCH          = 2025-10-28T12:53:37.626720
MEAN_MOTION    = 15.34558953
ECCENTRICITY   = .00058224
INCLINATION    = 51.8791
RA_OF_ASC_NODE = 238.3357
ARG_OF_PERICENTER = 189.3700
MEAN_ANOMALY   = 170.7178

EPHEMERIS_TYPE = 0
CLASSIFICATION_TYPE = U
NORAD_CAT_ID   = 65966
ELEMENT_SET_NO = 999
REV_AT_EPOCH   = 347
BSTAR          = .11356246E-2
MEAN_MOTION_DOT = .38435E-3
MEAN_MOTION_DDOT = 0

